[
  {
    "name": "PLEIADES NEO 3",
    "line1": "1 48268U 21034A   26022.24795421  .00000472  00000+0  66532-4 0  9992",
    "line2": "2 48268  97.8939  99.1082 0001329  98.7734 261.3629 14.81671433256041",
    "catNr": 48268
  },
  {
    "name": "PLEIADES NEO 4",
    "line1": "1 49070U 21073E   26022.75443815 -.00000041  00000+0  13944-5 0  9993",
    "line2": "2 49070  97.8934  99.6034 0001340  96.6012 263.5353 14.81669517239835",
    "catNr": 49070
  }
]